[{"OBJECT_NAME":"ONEWEB-0224","OBJECT_ID":"2021-045AD","EPOCH":"2025-12-22T06:10:02.194176","MEAN_MOTION":13.15551035,"ECCENTRICITY":0.00013353,"INCLINATION":87.9005,"RA_OF_ASC_NODE":294.5392,"ARG_OF_PERICENTER":46.1824,"MEAN_ANOMALY":313.9417,"EPHEMERIS_TYPE":0,"CLASSIFICATION_TYPE":"U","NORAD_CAT_ID":48794,"ELEMENT_SET_NO":999,"REV_AT_EPOCH":22101,"BSTAR":-0.00020260729,"MEAN_MOTION_DOT":-6.3e-7,"MEAN_MOTION_DDOT":0},{"OBJECT_NAME":"ONEWEB-0233","OBJECT_ID":"2021-045AE","EPOCH":"2025-12-22T06:16:40.704672","MEAN_MOTION":13.155502,"ECCENTRICITY":0.00018253,"INCLINATION":87.9001,"RA_OF_ASC_NODE":294.5484,"ARG_OF_PERICENTER":66.5532,"MEAN_ANOMALY":293.579,"EPHEMERIS_TYPE":0,"CLASSIFICATION_TYPE":"U","NORAD_CAT_ID":48795,"ELEMENT_SET_NO":999,"REV_AT_EPOCH":22103,"BSTAR":-0.00063881622,"MEAN_MOTION_DOT":-2.28e-6,"MEAN_MOTION_DDOT":0},{"OBJECT_NAME":"ONEWEB-0190","OBJECT_ID":"2021-045AF","EPOCH":"2025-12-22T05:58:38.900640","MEAN_MOTION":13.15549452,"ECCENTRICITY":0.00023123,"INCLINATION":87.9,"RA_OF_ASC_NODE":294.5131,"ARG_OF_PERICENTER":59.7084,"MEAN_ANOMALY":300.4275,"EPHEMERIS_TYPE":0,"CLASSIFICATION_TYPE":"U","NORAD_CAT_ID":48796,"ELEMENT_SET_NO":999,"REV_AT_EPOCH":22110,"BSTAR":-0.00021813387,"MEAN_MOTION_DOT":-6.9e-7,"MEAN_MOTION_DDOT":0},{"OBJECT_NAME":"ONEWEB-0236","OBJECT_ID":"2021-045AG","EPOCH":"2025-12-22T06:23:43.414080","MEAN_MOTION":13.15550812,"ECCENTRICITY":0.0001675,"INCLINATION":87.9,"RA_OF_ASC_NODE":294.5203,"ARG_OF_PERICENTER":79.3597,"MEAN_ANOMALY":280.7722,"EPHEMERIS_TYPE":0,"CLASSIFICATION_TYPE":"U","NORAD_CAT_ID":48797,"ELEMENT_SET_NO":999,"REV_AT_EPOCH":22099,"BSTAR":0.0001412584,"MEAN_MOTION_DOT":6.6e-7,"MEAN_MOTION_DDOT":0},{"OBJECT_NAME":"ONEWEB-0248","OBJECT_ID":"2021-045AH","EPOCH":"2025-12-22T06:41:59.687520","MEAN_MOTION":13.15546919,"ECCENTRICITY":0.00017343,"INCLINATION":87.9011,"RA_OF_ASC_NODE":294.4827,"ARG_OF_PERICENTER":57.1078,"MEAN_ANOMALY":303.0219,"EPHEMERIS_TYPE":0,"CLASSIFICATION_TYPE":"U","NORAD_CAT_ID":48798,"ELEMENT_SET_NO":999,"REV_AT_EPOCH":22115,"BSTAR":0.00054949407,"MEAN_MOTION_DOT":2.2e-6,"MEAN_MOTION_DDOT":0},{"OBJECT_NAME":"ONEWEB-0225","OBJECT_ID":"2021-045AJ","EPOCH":"2025-12-22T05:24:24.625728","MEAN_MOTION":13.15546497,"ECCENTRICITY":0.00021625,"INCLINATION":87.9005,"RA_OF_ASC_NODE":294.5162,"ARG_OF_PERICENTER":62.4844,"MEAN_ANOMALY":297.6506,"EPHEMERIS_TYPE":0,"CLASSIFICATION_TYPE":"U","NORAD_CAT_ID":48799,"ELEMENT_SET_NO":999,"REV_AT_EPOCH":22115,"BSTAR":-2.227672e-6,"MEAN_MOTION_DOT":1.2e-7,"MEAN_MOTION_DDOT":0},{"OBJECT_NAME":"ONEWEB-0215","OBJECT_ID":"2021-045AK","EPOCH":"2025-12-22T04:41:02.624064","MEAN_MOTION":13.15551162,"ECCENTRICITY":0.00020272,"INCLINATION":87.9015,"RA_OF_ASC_NODE":294.4849,"ARG_OF_PERICENTER":56.7314,"MEAN_ANOMALY":303.401,"EPHEMERIS_TYPE":0,"CLASSIFICATION_TYPE":"U","NORAD_CAT_ID":48800,"ELEMENT_SET_NO":999,"REV_AT_EPOCH":22102,"BSTAR":0.00015517406,"MEAN_MOTION_DOT":7.1e-7,"MEAN_MOTION_DDOT":0},{"OBJECT_NAME":"ONEWEB-0216","OBJECT_ID":"2021-045AL","EPOCH":"2025-12-22T06:44:16.686816","MEAN_MOTION":13.15549979,"ECCENTRICITY":0.00019879,"INCLINATION":87.9,"RA_OF_ASC_NODE":294.4971,"ARG_OF_PERICENTER":77.4392,"MEAN_ANOMALY":282.6961,"EPHEMERIS_TYPE":0,"CLASSIFICATION_TYPE":"U","NORAD_CAT_ID":48801,"ELEMENT_SET_NO":999,"REV_AT_EPOCH":22104,"BSTAR":0.00057605362,"MEAN_MOTION_DOT":2.3e-6,"MEAN_MOTION_DDOT":0},{"OBJECT_NAME":"ONEWEB-0239","OBJECT_ID":"2021-045AM","EPOCH":"2025-12-22T05:01:35.741280","MEAN_MOTION":13.15546794,"ECCENTRICITY":0.00018046,"INCLINATION":87.9002,"RA_OF_ASC_NODE":294.5259,"ARG_OF_PERICENTER":50.8658,"MEAN_ANOMALY":309.2633,"EPHEMERIS_TYPE":0,"CLASSIFICATION_TYPE":"U","NORAD_CAT_ID":48802,"ELEMENT_SET_NO":999,"REV_AT_EPOCH":22107,"BSTAR":0.0005715912,"MEAN_MOTION_DOT":2.28e-6,"MEAN_MOTION_DDOT":0},{"OBJECT_NAME":"ONEWEB-0249","OBJECT_ID":"2021-060A","EPOCH":"2025-12-22T03:08:56.276160","MEAN_MOTION":13.16543461,"ECCENTRICITY":0.00020628,"INCLINATION":87.9,"RA_OF_ASC_NODE":264.036,"ARG_OF_PERICENTER":61.3336,"MEAN_ANOMALY":298.8002,"EPHEMERIS_TYPE":0,"CLASSIFICATION_TYPE":"U","NORAD_CAT_ID":48967,"ELEMENT_SET_NO":999,"REV_AT_EPOCH":21631,"BSTAR":-0.011382376,"MEAN_MOTION_DOT":-4.333e-5,"MEAN_MOTION_DDOT":0},{"OBJECT_NAME":"ONEWEB-0250","OBJECT_ID":"2021-060B","EPOCH":"2025-12-22T06:13:32.625696","MEAN_MOTION":13.25821231,"ECCENTRICITY":8.486e-5,"INCLINATION":87.904,"RA_OF_ASC_NODE":262.3425,"ARG_OF_PERICENTER":48.0606,"MEAN_ANOMALY":312.0602,"EPHEMERIS_TYPE":0,"CLASSIFICATION_TYPE":"U","NORAD_CAT_ID":48968,"ELEMENT_SET_NO":999,"REV_AT_EPOCH":21677,"BSTAR":5.339263e-6,"MEAN_MOTION_DOT":1.6e-7,"MEAN_MOTION_DDOT":0},{"OBJECT_NAME":"ONEWEB-0252","OBJECT_ID":"2021-060D","EPOCH":"2025-12-22T05:43:55.712064","MEAN_MOTION":13.16593451,"ECCENTRICITY":0.00019461,"INCLINATION":87.9044,"RA_OF_ASC_NODE":264.0053,"ARG_OF_PERICENTER":76.1874,"MEAN_ANOMALY":283.9474,"EPHEMERIS_TYPE":0,"CLASSIFICATION_TYPE":"U","NORAD_CAT_ID":48970,"ELEMENT_SET_NO":999,"REV_AT_EPOCH":21637,"BSTAR":-0.00024816835,"MEAN_MOTION_DOT":-8.2e-7,"MEAN_MOTION_DDOT":0},{"OBJECT_NAME":"ONEWEB-0253","OBJECT_ID":"2021-060E","EPOCH":"2025-12-22T03:38:31.587072","MEAN_MOTION":13.1659298,"ECCENTRICITY":0.00018142,"INCLINATION":87.9062,"RA_OF_ASC_NODE":264.0276,"ARG_OF_PERICENTER":69.825,"MEAN_ANOMALY":290.3076,"EPHEMERIS_TYPE":0,"CLASSIFICATION_TYPE":"U","NORAD_CAT_ID":48971,"ELEMENT_SET_NO":999,"REV_AT_EPOCH":21629,"BSTAR":0.00025188172,"MEAN_MOTION_DOT":1.09e-6,"MEAN_MOTION_DDOT":0},{"OBJECT_NAME":"ONEWEB-0254","OBJECT_ID":"2021-060F","EPOCH":"2025-12-22T05:41:39.059232","MEAN_MOTION":13.16590672,"ECCENTRICITY":0.00016734,"INCLINATION":87.9054,"RA_OF_ASC_NODE":264.0026,"ARG_OF_PERICENTER":61.635,"MEAN_ANOMALY":298.495,"EPHEMERIS_TYPE":0,"CLASSIFICATION_TYPE":"U","NORAD_CAT_ID":48972,"ELEMENT_SET_NO":999,"REV_AT_EPOCH":21630,"BSTAR":-0.00025118842,"MEAN_MOTION_DOT":-8.3e-7,"MEAN_MOTION_DDOT":0},{"OBJECT_NAME":"ONEWEB-0255","OBJECT_ID":"2021-060G","EPOCH":"2025-12-21T19:39:44.807904","MEAN_MOTION":13.16592058,"ECCENTRICITY":0.00017148,"INCLINATION":87.9042,"RA_OF_ASC_NODE":264.1007,"ARG_OF_PERICENTER":65.889,"MEAN_ANOMALY":294.242,"EPHEMERIS_TYPE":0,"CLASSIFICATION_TYPE":"U","NORAD_CAT_ID":48973,"ELEMENT_SET_NO":999,"REV_AT_EPOCH":21632,"BSTAR":0.00017299328,"MEAN_MOTION_DOT":7.9e-7,"MEAN_MOTION_DDOT":0},{"OBJECT_NAME":"ONEWEB-0256","OBJECT_ID":"2021-060H","EPOCH":"2025-12-22T03:35:07.029024","MEAN_MOTION":13.16596219,"ECCENTRICITY":0.00017272,"INCLINATION":87.9041,"RA_OF_ASC_NODE":264.0428,"ARG_OF_PERICENTER":77.5331,"MEAN_ANOMALY":282.5994,"EPHEMERIS_TYPE":0,"CLASSIFICATION_TYPE":"U","NORAD_CAT_ID":48974,"ELEMENT_SET_NO":999,"REV_AT_EPOCH":21633,"BSTAR":0.00032605152,"MEAN_MOTION_DOT":1.38e-6,"MEAN_MOTION_DDOT":0},{"OBJECT_NAME":"ONEWEB-0257","OBJECT_ID":"2021-060J","EPOCH":"2025-12-22T06:11:15.898560","MEAN_MOTION":13.16595651,"ECCENTRICITY":0.00017498,"INCLINATION":87.9044,"RA_OF_ASC_NODE":264.0004,"ARG_OF_PERICENTER":69.797,"MEAN_ANOMALY":290.3349,"EPHEMERIS_TYPE":0,"CLASSIFICATION_TYPE":"U","NORAD_CAT_ID":48975,"ELEMENT_SET_NO":999,"REV_AT_EPOCH":21630,"BSTAR":-4.1630394e-5,"MEAN_MOTION_DOT":-3.0e-8,"MEAN_MOTION_DDOT":0},{"OBJECT_NAME":"ONEWEB-0258","OBJECT_ID":"2021-060K","EPOCH":"2025-12-22T06:13:32.951424","MEAN_MOTION":13.16596868,"ECCENTRICITY":0.00015572,"INCLINATION":87.904,"RA_OF_ASC_NODE":264.0147,"ARG_OF_PERICENTER":74.1492,"MEAN_ANOMALY":285.9811,"EPHEMERIS_TYPE":0,"CLASSIFICATION_TYPE":"U","NORAD_CAT_ID":48976,"ELEMENT_SET_NO":999,"REV_AT_EPOCH":21631,"BSTAR":-6.3368996e-5,"MEAN_MOTION_DOT":-1.1e-7,"MEAN_MOTION_DDOT":0},{"OBJECT_NAME":"ONEWEB-0259","OBJECT_ID":"2021-060L","EPOCH":"2025-12-22T06:04:25.604832","MEAN_MOTION":13.16596215,"ECCENTRICITY":0.0001672,"INCLINATION":87.9049,"RA_OF_ASC_NODE":264.0108,"ARG_OF_PERICENTER":67.9568,"MEAN_ANOMALY":292.1741,"EPHEMERIS_TYPE":0,"CLASSIFICATION_TYPE":"U","NORAD_CAT_ID":48977,"ELEMENT_SET_NO":999,"REV_AT_EPOCH":21634,"BSTAR":6.6129118e-5,"MEAN_MOTION_DOT":3.8e-7,"MEAN_MOTION_DDOT":0},{"OBJECT_NAME":"ONEWEB-0260","OBJECT_ID":"2021-060M","EPOCH":"2025-12-22T05:51:54.986688","MEAN_MOTION":13.16595023,"ECCENTRICITY":0.00020268,"INCLINATION":87.9033,"RA_OF_ASC_NODE":264.0252,"ARG_OF_PERICENTER":80.9006,"MEAN_ANOMALY":279.2354,"EPHEMERIS_TYPE":0,"CLASSIFICATION_TYPE":"U","NORAD_CAT_ID":48978,"ELEMENT_SET_NO":999,"REV_AT_EPOCH":21632,"BSTAR":0.00022784895,"MEAN_MOTION_DOT":1.0e-6,"MEAN_MOTION_DDOT":0},{"OBJECT_NAME":"ONEWEB-0261","OBJECT_ID":"2021-060N","EPOCH":"2025-12-22T05:08:35.755008","MEAN_MOTION":13.16594244,"ECCENTRICITY":0.00019371,"INCLINATION":87.9046,"RA_OF_ASC_NODE":264.0334,"ARG_OF_PERICENTER":64.362,"MEAN_ANOMALY":295.7711,"EPHEMERIS_TYPE":0,"CLASSIFICATION_TYPE":"U","NORAD_CAT_ID":48979,"ELEMENT_SET_NO":999,"REV_AT_EPOCH":21637,"BSTAR":0.00025520163,"MEAN_MOTION_DOT":1.1e-6,"MEAN_MOTION_DDOT":0},{"OBJECT_NAME":"ONEWEB-0262","OBJECT_ID":"2021-060P","EPOCH":"2025-12-22T06:29:30.251328","MEAN_MOTION":13.16596682,"ECCENTRICITY":0.00014469,"INCLINATION":87.9047,"RA_OF_ASC_NODE":263.9964,"ARG_OF_PERICENTER":63.8589,"MEAN_ANOMALY":296.269,"EPHEMERIS_TYPE":0,"CLASSIFICATION_TYPE":"U","NORAD_CAT_ID":48980,"ELEMENT_SET_NO":999,"REV_AT_EPOCH":21634,"BSTAR":0.00047774923,"MEAN_MOTION_DOT":1.95e-6,"MEAN_MOTION_DDOT":0},{"OBJECT_NAME":"ONEWEB-0263","OBJECT_ID":"2021-060Q","EPOCH":"2025-12-22T03:36:14.268096","MEAN_MOTION":13.16592972,"ECCENTRICITY":0.00018684,"INCLINATION":87.905,"RA_OF_ASC_NODE":264.0343,"ARG_OF_PERICENTER":62.9293,"MEAN_ANOMALY":297.2029,"EPHEMERIS_TYPE":0,"CLASSIFICATION_TYPE":"U","NORAD_CAT_ID":48981,"ELEMENT_SET_NO":999,"REV_AT_EPOCH":21629,"BSTAR":0.00040590703,"MEAN_MOTION_DOT":1.68e-6,"MEAN_MOTION_DDOT":0}]
